DMSP 5D-3 F16 (USA 172) 
1 28054U 03048A   26197.88602146 -.00000052  00000+0 -32297-5 0  9990
2 28054  98.9897 221.9098 0008067  66.9704  55.7364 14.14484775173685
METEOSAT-9 (MSG-2)      
1 28912U 05049B   26197.62531972  .00000110  00000+0  00000+0 0  9990
2 28912   9.4264  53.8734 0002257 356.5374 154.8210  1.00272776  7299
DMSP 5D-3 F17 (USA 191) 
1 29522U 06050A   26197.86839534 -.00000040  00000+0  16325-5 0  9998
2 29522  98.7388 203.8322 0009632 337.9328  22.1430 14.14996195 16626
FENGYUN 3A              
1 32958U 08026A   26197.43890171  .00000023  00000+0  31374-4 0  9997
2 32958  98.6886 137.7257 0009637  48.7192 311.4813 14.19576612939556
EWS-G3 (GOES 14)        
1 35491U 09033A   26197.79345898 -.00000370  00000+0  00000+0 0  9994
2 35491   1.7642  82.6722 0001976  40.0506 221.6138  1.00097372  6883
DMSP 5D-3 F18 (USA 210) 
1 35951U 09057A   26197.84163647  .00000177  00000+0  11449-3 0  9994
2 35951  98.9057 178.5493 0011325 160.9186 199.2414 14.14912398863787
EWS-G2 (GOES 15)        
1 36411U 10008A   26197.85273833  .00000012  00000+0  00000+0 0  9999
2 36411   1.3575  82.4387 0005292  53.9163 168.6000  1.00268690 59934
COMS 1                  
1 36744U 10032A   26197.47521486 -.00000250  00000+0  00000+0 0  9998
2 36744   4.8786  75.0015 0011246  14.9725 332.3841  0.99167627 51376
FENGYUN 3B              
1 37214U 10059A   26197.87354465 -.00000367  00000+0 -16656-3 0  9993
2 37214  98.9603 244.0115 0023184 101.9580   7.2017 14.14845357811620
SUOMI NPP               
1 37849U 11061A   26197.87414693  .00000024  00000+0  32560-4 0  9992
2 37849  98.7955 138.5484 0000820 205.0663 155.0473 14.19522768762657
METEOSAT-10 (MSG-3)     
1 38552U 12035B   26197.76898441 -.00000019  00000+0  00000+0 0  9995
2 38552   4.7400  60.8739 0001221  16.6665 133.9327  1.00271271 51150
METOP-B                 
1 38771U 12049A   26197.82416674  .00000038  00000+0  37114-4 0  9995
2 38771  98.6489 248.7297 0001130 246.1473 113.9586 14.21446659717474
INSAT-3D                
1 39216U 13038B   26197.43814667 -.00000351  00000+0  00000+0 0  9998
2 39216   1.9997  82.1690 0000536  76.4436  62.8721  1.00268001 47373
FENGYUN 3C              
1 39260U 13052A   26197.86796185  .00000018  00000+0  30089-4 0  9998
2 39260  98.5000 170.3832 0013607 300.7754  59.2080 14.15761023662762
METEOR-M 2              
1 40069U 14037A   26197.85010519 -.00000110  00000+0 -30927-4 0  9996
2 40069  98.5131 172.5410 0005068 321.4892  38.5924 14.21468905623536
HIMAWARI-8              
1 40267U 14060A   26197.79675235 -.00000286  00000+0  00000+0 0  9994
2 40267   0.0180  23.5638 0001136 143.2155 195.3418  1.00271032 43058
FENGYUN 2G              
1 40367U 14090A   26197.83497266 -.00000315  00000+0  00000+0 0  9992
2 40367   5.7114  72.4541 0004190 172.9611  89.1999  1.00280173 42298
METEOSAT-11 (MSG-4)     
1 40732U 15034A   26197.84205740  .00000050  00000+0  00000+0 0  9997
2 40732   3.2729  70.9200 0002136 354.6087 181.5323  1.00272374  7516
ELEKTRO-L 2             
1 41105U 15074A   26197.83737737 -.00000131  00000+0  00000+0 0  9992
2 41105   6.7666  70.1551 0001006 214.4188 297.0458  1.00272116 38802
SENTINEL-3A             
1 41335U 16011A   26197.81136017  .00000040  00000+0  34464-4 0  9995
2 41335  98.6236 264.7674 0001354  89.3793 270.7543 14.26740023542288
INSAT-3DR               
1 41752U 16054A   26197.85490501 -.00000087  00000+0  00000+0 0  9996
2 41752   0.0741  88.8413 0010513 180.9766  46.6194  1.00270885 36114
HIMAWARI-9              
1 41836U 16064A   26197.68030735 -.00000286  00000+0  00000+0 0  9991
2 41836   0.0277 239.4466 0002008 293.6551 147.0350  1.00267575 35501
GOES 16                 
1 41866U 16071A   26197.60564999 -.00000102  00000+0  00000+0 0  9995
2 41866   0.4077  85.4567 0000548  90.3097 232.0048  1.00271098 35392
FENGYUN 4A              
1 41882U 16077A   26197.86469840 -.00000369  00000+0  00000+0 0  9991
2 41882   2.3960  79.9395 0008464 159.7018 130.0629  1.00267242 35227
CYGFM05                 
1 41884U 16078A   26197.79574538  .00015617  00000+0  20246-3 0  9996
2 41884  34.9569  64.3345 0005676  53.5638 306.5610 15.57905415533376
CYGFM04                 
1 41885U 16078B   26197.86223875  .00021107  00000+0  22330-3 0  9997
2 41885  34.9327  30.0326 0004108 104.5636 255.5546 15.63151096533648
CYGFM02                 
1 41886U 16078C   26197.86705969  .00026496  00000+0  24543-3 0  9991
2 41886  34.9409  23.6238 0004883 107.4559 252.6703 15.66448244533826
CYGFM01                 
1 41887U 16078D   26197.83517809  .00015971  00000+0  20145-3 0  9993
2 41887  34.9398  64.8829 0005647  46.7864 313.3332 15.58626751533331
CYGFM08                 
1 41888U 16078E   26197.86968350  .00019986  00000+0  22530-3 0  9998
2 41888  34.9434  43.4184 0006010  87.3001 272.8412 15.61522286533610
CYGFM07                 
1 41890U 16078G   26197.82688002  .00020350  00000+0  22851-3 0  9993
2 41890  34.9450  32.0187 0004536 104.2053 255.9177 15.61630270533630
CYGFM03                 
1 41891U 16078H   26197.86201846  .00019764  00000+0  22208-3 0  9998
2 41891  34.9406  33.7135 0004350  85.9651 274.1572 15.61616735533616
